H1 CPF 01  gfz 2022 05 11 12  6312 terrasarx 
H2 0702601  6201 31698    2022 05 11 12 59 42 2022 05 16 00 00 42   120 1 1  0 0 0
H9
10 0 59712   6462.000000  0   -1203494.011   -431428.227   6758054.704
10 0 59712   6582.000000  0    -800176.062    393605.547   6819749.390
10 0 59712   6702.000000  0    -368583.316   1204466.533   6761624.685
10 0 59712   6822.000000  0      83379.645   1986581.698   6584695.979
10 0 59712   6942.000000  0     547202.600   2726018.328   6292053.099
10 0 59712   7062.000000  0    1013929.033   3409732.118   5888809.432
10 0 59712   7182.000000  0    1474327.718   4025799.588   5382018.171
10 0 59712   7302.000000  0    1919074.164   4563630.514   4780555.072
10 0 59712   7422.000000  0    2338939.458   5014156.738   4094968.575
10 0 59712   7542.000000  0    2724981.502   5369991.156   3337298.615
10 0 59712   7662.000000  0    3068735.498   5625557.366   2520869.292
10 0 59712   7782.000000  0    3362400.052   5777186.465   1660051.695
10 0 59712   7902.000000  0    3599011.098   5823171.686    770005.018
10 0 59712   8022.000000  0    3772600.836   5763785.221   -133596.928
10 0 59712   8142.000000  0    3878338.807   5601254.191  -1034850.408
10 0 59712   8262.000000  0    3912649.707   5339697.216  -1917909.655
10 0 59712   8382.000000  0    3873306.248   4985023.820  -2767273.172
10 0 59712   8502.000000  0    3759493.572   4544798.343  -3568061.786
10 0 59712   8622.000000  0    3571844.048   4028072.504  -4306281.562
10 0 59712   8742.000000  0    3312443.340   3445193.010  -4969066.256
10 0 59712   8862.000000  0    2984807.581   2807588.107  -5544897.230
10 0 59712   8982.000000  0    2593832.130   2127537.830  -6023795.160
10 0 59712   9102.000000  0    2145714.234   1417934.470  -6397482.620
10 0 59712   9222.000000  0    1647851.415    692037.632  -6659514.816
10 0 59712   9342.000000  0    1108719.128    -36770.345  -6805379.785
10 0 59712   9462.000000  0     537726.918   -755226.646  -6832569.264
10 0 59712   9582.000000  0     -54943.889  -1450424.243  -6740615.540
10 0 59712   9702.000000  0    -658516.652  -2110036.832  -6531097.853
10 0 59712   9822.000000  0   -1261810.406  -2722532.348  -6207619.770
10 0 59712   9942.000000  0   -1853442.233  -3277372.399  -5775753.518
10 0 59712  10062.000000  0   -2422037.090  -3765192.730  -5242953.756
10 0 59712  10182.000000  0   -2956444.131  -4177964.588  -4618441.521
10 0 59712  10302.000000  0   -3445955.813  -4509132.918  -3913055.475
10 0 59712  10422.000000  0   -3880523.564  -4753727.167  -3139073.015
10 0 59712  10542.000000  0   -4250966.832  -4908443.267  -2310003.762
10 0 59712  10662.000000  0   -4549170.464  -4971693.715  -1440357.104
10 0 59712  10782.000000  0   -4768265.035  -4943624.157   -545387.837
10 0 59712  10902.000000  0   -4902785.220  -4826095.529    359175.384
10 0 59712  11022.000000  0   -4948801.979  -4622631.560   1257413.795
10 0 59712  11142.000000  0   -4904024.057  -4338331.457   2133508.316
10 0 59712  11262.000000  0   -4767865.824  -3979750.243   2972027.299
10 0 59712  11382.000000  0   -4541480.519  -3554750.514   3758205.967
10 0 59712  11502.000000  0   -4227758.172  -3072329.656   4478212.416
10 0 59712  11622.000000  0   -3831287.275  -2542425.890   5119393.907
10 0 59712  11742.000000  0   -3358283.304  -1975710.159   5670497.449
10 0 59712  11862.000000  0   -2816486.685  -1383369.118   6121864.373
10 0 59712  11982.000000  0   -2215030.728   -776881.710   6465596.250
10 0 59712  12102.000000  0   -1564281.933   -167793.745   6695687.409
10 0 59712  12222.000000  0    -875657.234    432501.745   6808121.993
10 0 59712  12342.000000  0    -161423.365   1012975.881   6800939.348
10 0 59712  12462.000000  0     565521.249   1563166.006   6674266.367
10 0 59712  12582.000000  0    1291878.899   2073364.346   6430315.495
10 0 59712  12702.000000  0    2004195.065   2534789.226   6073347.692
10 0 59712  12822.000000  0    2689106.897   2939736.821   5609603.170
10 0 59712  12942.000000  0    3333595.634   3281712.605   5047199.271
10 0 59712  13062.000000  0    3925237.520   3555538.999   4395993.148
10 0 59712  13182.000000  0    4452445.704   3757436.083   3667414.363
10 0 59712  13302.000000  0    4904705.381   3885077.001   2874269.266
10 0 59712  13422.000000  0    5272789.655   3937612.366   2030513.308
10 0 59712  13542.000000  0    5548952.917   3915664.101   1151003.179
10 0 59712  13662.000000  0    5727097.240   3821289.546    251228.896
10 0 59712  13782.000000  0    5802906.550   3657915.361   -652967.634
10 0 59712  13902.000000  0    5773944.668   3430243.303  -1545680.339
10 0 59712  14022.000000  0    5639715.517   3144130.279  -2411226.990
10 0 59712  14142.000000  0    5401683.694   2806446.480  -3234430.672
10 0 59712  14262.000000  0    5063256.910   2424915.491  -4000889.219
10 0 59712  14382.000000  0    4629730.321   2007939.969  -4697228.757
10 0 59712  14502.000000  0    4108192.406   1564416.680  -5311333.261
10 0 59712  14622.000000  0    3507399.632   1103547.861  -5832547.275
10 0 59712  14742.000000  0    2837621.353    634652.305  -6251851.439
10 0 59712  14862.000000  0    2110457.881    166979.524  -6562007.159
10 0 59712  14982.000000  0    1338637.723   -290468.545  -6757669.848
10 0 59712  15102.000000  0     535796.384   -729106.803  -6835472.911
10 0 59712  15222.000000  0    -283762.187  -1140924.067  -6794078.548
10 0 59712  15342.000000  0   -1105313.949  -1518624.898  -6634197.198
10 0 59712  15462.000000  0   -1913972.923  -1855755.717  -6358577.671
10 0 59712  15582.000000  0   -2694955.217  -2146813.532  -5971964.536
10 0 59712  15702.000000  0   -3433843.544  -2387334.939  -5481024.953
10 0 59712  15822.000000  0   -4116851.853  -2573965.942  -4894246.115
10 0 59712  15942.000000  0   -4731085.282  -2704510.059  -4221799.756
10 0 59712  16062.000000  0   -5264788.330  -2777953.240  -3475376.092
10 0 59712  16182.000000  0   -5707577.810  -2794465.225  -2667988.946
10 0 59712  16302.000000  0   -6050654.536  -2755376.399  -1813753.496
10 0 59712  16422.000000  0   -6286987.782  -2663130.707   -927640.700
10 0 59712  16542.000000  0   -6411468.114  -2521214.943    -25212.183
10 0 59712  16662.000000  0   -6421023.560  -2334065.841    877658.694
10 0 59712  16782.000000  0   -6314696.339  -2106957.122   1765074.610
10 0 59712  16902.000000  0   -6093675.453  -1845869.220   2621404.247
10 0 59712  17022.000000  0   -5761285.572  -1557345.051   3431565.474
10 0 59712  17142.000000  0   -5322934.234  -1248335.745   4181298.700
10 0 59712  17262.000000  0   -4786014.555   -926039.723   4857422.447
10 0 59712  17382.000000  0   -4159771.251   -597740.514   5448064.049
10 0 59712  17502.000000  0   -3455133.627   -270646.816   5942866.457
10 0 59712  17622.000000  0   -2684516.053     48262.838   6333166.449
10 0 59712  17742.000000  0   -1861591.632    352385.878   6612140.303
10 0 59712  17862.000000  0   -1001044.676    635628.837   6774916.722
10 0 59712  17982.000000  0    -118306.702    892527.499   6818656.231
10 0 59712  18102.000000  0     770720.003   1118350.970   6742597.029
10 0 59712  18222.000000  0    1649947.707   1309188.632   6548067.543
10 0 59712  18342.000000  0    2503393.395   1462018.222   6238464.480
10 0 59712  18462.000000  0    3315469.012   1574753.668   5819197.826
10 0 59712  18582.000000  0    4071268.834   1646272.358   5297601.710
10 0 59712  18702.000000  0    4756845.991   1676421.367   4682811.752
10 0 59712  18822.000000  0    5359476.362   1666003.472   3985612.853
10 0 59712  18942.000000  0    5867905.648   1616741.751   3218253.080
10 0 59712  19062.000000  0    6272567.499   1531223.733   2394228.109
10 0 59712  19182.000000  0    6565773.302   1412825.630   1528043.487
10 0 59712  19302.000000  0    6741866.414   1265619.498    634953.605
10 0 59712  19422.000000  0    6797336.177   1094265.054   -269313.756
10 0 59712  19542.000000  0    6730890.166    903888.730  -1168843.748
10 0 59712  19662.000000  0    6543479.434    699952.537  -2047823.501
10 0 59712  19782.000000  0    6238279.913    488116.397  -2890826.838
10 0 59712  19902.000000  0    5820629.672    274098.650  -3683090.244
10 0 59712  20022.000000  0    5297924.044     63537.565  -4410773.859
10 0 59712  20142.000000  0    4679470.673   -138142.739  -5061201.210
10 0 59712  20262.000000  0    3976311.485   -325858.318  -5623072.943
10 0 59712  20382.000000  0    3201016.548   -494981.011  -6086654.566
10 0 59712  20502.000000  0    2367452.016   -641441.894  -6443935.399
10 0 59712  20622.000000  0    1490528.307   -761819.534  -6688754.612
10 0 59712  20742.000000  0     585935.011   -853413.055  -6816897.322
10 0 59712  20862.000000  0    -330136.666   -914297.721  -6826159.792
10 0 59712  20982.000000  0   -1241277.257   -943362.563  -6716382.283
10 0 59712  21102.000000  0   -2131146.141   -940330.135  -6489452.154
10 0 59712  21222.000000  0   -2983758.356   -905757.496  -6149273.834
10 0 59712  21342.000000  0   -3783765.006   -841019.061  -5701708.722
10 0 59712  21462.000000  0   -4516728.265   -748271.380  -5154485.946
10 0 59712  21582.000000  0   -5169384.423   -630399.772  -4517079.767
10 0 59712  21702.000000  0   -5729889.430   -490948.489  -3800557.094
10 0 59712  21822.000000  0   -6188044.111   -334034.901  -3017395.195
10 0 59712  21942.000000  0   -6535491.655   -164248.664  -2181270.475
10 0 59712  22062.000000  0   -6765883.429     13460.692  -1306823.099
10 0 59712  22182.000000  0   -6875008.921    193907.138   -409398.888
10 0 59712  22302.000000  0   -6860881.711    371797.923    495226.659
10 0 59712  22422.000000  0   -6723781.445    541867.145   1391131.943
10 0 59712  22542.000000  0   -6466252.179    699009.255   2262537.953
10 0 59712  22662.000000  0   -6093054.342    838409.290   3094095.696
10 0 59712  22782.000000  0   -5611071.136    955666.504   3871164.874
10 0 59712  22902.000000  0   -5029172.626   1046907.977   4580076.704
99
